H1 CPF 01  gfz 2021 01 19 13  5192 tandemx   
H2 1003001  6202 36605    2021 01 19 12 59 42 2021 01 24 00 00 42   120 1 1  0 0 0
H9
10 0 59236  35982.000000  0   -2969138.808   3783157.955  -4940131.188
10 0 59236  36102.000000  0   -3167068.399   4385551.368  -4273572.078
10 0 59236  36222.000000  0   -3300009.503   4914555.585  -3532148.015
10 0 59236  36342.000000  0   -3366963.309   5359729.739  -2728779.098
10 0 59236  36462.000000  0   -3368248.849   5712071.781  -1877503.753
10 0 59236  36582.000000  0   -3305477.707   5964210.073   -993235.482
10 0 59236  36702.000000  0   -3181500.668   6110565.026    -91498.836
10 0 59236  36822.000000  0   -3000330.661   6147476.909    811847.272
10 0 59236  36942.000000  0   -2767041.370   6073298.046   1700898.239
10 0 59236  37062.000000  0   -2487641.014   5888441.813   2559994.898
10 0 59236  37182.000000  0   -2168928.074   5595388.521   3374007.795
10 0 59236  37302.000000  0   -1818333.395   5198650.428   4128609.529
10 0 59236  37422.000000  0   -1443752.045   4704696.697   4810530.873
10 0 59236  37542.000000  0   -1053368.096   4121840.107   5407795.647
10 0 59236  37662.000000  0    -655477.309   3460088.223   5909928.975
10 0 59236  37782.000000  0    -258313.112   2730963.202   6308136.918
10 0 59236  37902.000000  0     130122.075   1947294.412   6595454.210
10 0 59236  38022.000000  0     502216.350   1122988.862   6766860.546
10 0 59236  38142.000000  0     850896.275    272781.538   6819362.596
10 0 59236  38262.000000  0    1169760.047   -588027.269   6752042.517
10 0 59236  38382.000000  0    1453194.395  -1443846.731   6566074.181
10 0 59236  38502.000000  0    1696473.594  -2279077.337   6264704.120
10 0 59236  38622.000000  0    1895838.771  -3078395.760   5853199.071
10 0 59236  38742.000000  0    2048556.401  -3827038.353   5338758.952
10 0 59236  38862.000000  0    2152954.686  -4511077.194   4730395.850
10 0 59236  38982.000000  0    2208438.021  -5117683.990   4038782.122
10 0 59236  39102.000000  0    2215479.879  -5635379.275   3276067.467
10 0 59236  39222.000000  0    2175590.854  -6054258.674   2455665.993
10 0 59236  39342.000000  0    2091264.477  -6366190.439   1592018.407
10 0 59236  39462.000000  0    1965903.134  -6564979.721    700334.185
10 0 59236  39582.000000  0    1803723.612  -6646497.400   -203682.060
10 0 59236  39702.000000  0    1609645.855  -6608769.477  -1104116.270
10 0 59236  39822.000000  0    1389165.270  -6452019.478  -1985136.426
10 0 59236  39942.000000  0    1148213.731  -6178666.644  -2831277.946
10 0 59236  40062.000000  0     893014.380  -5793279.370  -3627721.002
10 0 59236  40182.000000  0     629934.174  -5302487.199  -4360551.456
10 0 59236  40302.000000  0     365335.413  -4714854.199  -5017002.085
10 0 59236  40422.000000  0     105431.362  -4040717.524  -5585668.955
10 0 59236  40542.000000  0    -143850.965  -3291995.276  -6056701.110
10 0 59236  40662.000000  0    -376998.036  -2481968.117  -6421960.275
10 0 59236  40782.000000  0    -589024.746  -1625039.811  -6675149.901
10 0 59236  40902.000000  0    -775575.245   -736481.461  -6811912.973
10 0 59236  41022.000000  0    -933007.880    167837.418  -6829899.391
10 0 59236  41142.000000  0   -1058463.356   1071726.411  -6728800.625
10 0 59236  41262.000000  0   -1149915.341   1958956.308  -6510354.292
10 0 59236  41382.000000  0   -1206202.593   2813542.899  -6178317.465
10 0 59236  41502.000000  0   -1227042.452   3620029.864  -5738410.734
10 0 59236  41622.000000  0   -1213025.548   4363766.612  -5198229.396
10 0 59236  41742.000000  0   -1165591.332   5031176.012  -4567124.170
10 0 59236  41862.000000  0   -1086985.334   5610008.380  -3856050.112
10 0 59236  41982.000000  0    -980197.965   6089574.750  -3077385.013
10 0 59236  42102.000000  0    -848886.038   6460954.685  -2244720.890
10 0 59236  42222.000000  0    -697278.439   6717174.928  -1372630.039
10 0 59236  42342.000000  0    -530068.372   6853351.896   -476409.413
10 0 59236  42462.000000  0    -352293.630   6866795.707    428191.218
10 0 59236  42582.000000  0    -169208.323   6757071.548   1325253.556
10 0 59236  42702.000000  0      13849.988   6526014.145   2198981.291
10 0 59236  42822.000000  0     191594.293   6177694.634   3033986.951
10 0 59236  42942.000000  0     358920.239   5718344.014   3815569.114
10 0 59236  43062.000000  0     511033.660   5156236.811   4529976.184
10 0 59236  43182.000000  0     643569.376   4501531.678   5164655.725
10 0 59236  43302.000000  0     752698.356   3766073.448   5708471.051
10 0 59236  43422.000000  0     835222.562   2963172.145   6151892.706
10 0 59236  43542.000000  0     888653.161   2107354.132   6487160.976
10 0 59236  43662.000000  0     911271.481   1214093.987   6708415.735
10 0 59236  43782.000000  0     902172.149    299531.258   6811792.791
10 0 59236  43902.000000  0     861287.425   -619820.668   6795486.545
10 0 59236  44022.000000  0     789392.089  -1527372.072   6659781.015
10 0 59236  44142.000000  0     688088.796  -2406756.221   6407045.467
10 0 59236  44262.000000  0     559774.122  -3242125.402   6041696.263
10 0 59236  44382.000000  0     407585.593  -4018438.657   5570121.990
10 0 59236  44502.000000  0     235331.926  -4721733.843   5000576.693
10 0 59236  44622.000000  0      47407.386  -5339383.669   4343043.111
10 0 59236  44742.000000  0    -151309.523  -5860332.465   3609063.699
10 0 59236  44862.000000  0    -355571.369  -6275304.505   2811540.088
10 0 59236  44982.000000  0    -559887.330  -6576979.450   1964505.553
10 0 59236  45102.000000  0    -758655.900  -6760129.505   1082875.347
10 0 59236  45222.000000  0    -946302.676  -6821719.106    182178.394
10 0 59236  45342.000000  0   -1117419.290  -6760958.245   -721726.181
10 0 59236  45462.000000  0   -1266898.430  -6579309.287  -1612937.559
10 0 59236  45582.000000  0   -1390062.426  -6280449.018  -2475800.699
10 0 59236  45702.000000  0   -1482782.801  -5870187.549  -3295187.621
10 0 59236  45822.000000  0   -1541587.529  -5356345.151  -4056766.845
10 0 59236  45942.000000  0   -1563752.953  -4748590.508  -4747254.072
10 0 59236  46062.000000  0   -1547378.560  -4058246.738  -5354639.093
10 0 59236  46182.000000  0   -1491443.501  -3298070.740  -5868386.946
10 0 59236  46302.000000  0   -1395843.673  -2482010.324  -6279611.153
10 0 59236  46422.000000  0   -1261408.885  -1624943.672  -6581216.310
10 0 59236  46542.000000  0   -1089900.489   -742407.745  -6768008.749
10 0 59236  46662.000000  0    -883989.947    149680.139  -6836776.442
10 0 59236  46782.000000  0    -647217.434   1035303.405  -6786337.397
10 0 59236  46902.000000  0    -383931.934   1898626.064  -6617557.476
10 0 59236  47022.000000  0     -99214.471   2724268.308  -6333337.410
10 0 59236  47142.000000  0     201216.204   3497575.634  -5938570.246
10 0 59236  47262.000000  0     511114.673   4204877.449  -5440065.719
10 0 59236  47382.000000  0     823833.146   4833729.114  -4846443.372
10 0 59236  47502.000000  0    1132458.104   5373136.392  -4167995.572
10 0 59236  47622.000000  0    1429957.226   5813756.450  -3416518.879
10 0 59236  47742.000000  0    1709333.092   6148070.172  -2605116.887
10 0 59236  47862.000000  0    1963780.579   6370522.956  -1747976.666
10 0 59236  47982.000000  0    2186844.519   6477629.284   -860121.098
10 0 59236  48102.000000  0    2372573.317   6468036.592     42858.210
10 0 59236  48222.000000  0    2515664.259   6342546.483    945080.943
10 0 59236  48342.000000  0    2611596.870   6104092.861   1830664.838
10 0 59236  48462.000000  0    2656750.887   5757677.491   2684013.447
10 0 59236  48582.000000  0    2648506.166   5310264.598   3490098.719
10 0 59236  48702.000000  0    2585321.914   4770636.739   4234732.565
10 0 59236  48822.000000  0    2466792.392   4149215.575   4904822.746
10 0 59236  48942.000000  0    2293676.285   3457849.109   5488604.134
10 0 59236  49062.000000  0    2067903.105   2709577.851   5975840.704
10 0 59236  49182.000000  0    1792556.161   1918383.345   6358001.002
10 0 59236  49302.000000  0    1471830.391   1098921.407   6628402.812
10 0 59236  49422.000000  0    1110967.069    266247.152   6782322.822
10 0 59236  49542.000000  0     716167.466   -564460.771   6817073.420
10 0 59236  49662.000000  0     294486.054  -1378176.443   6732048.490
10 0 59236  49782.000000  0    -146295.819  -2160298.716   6528733.278
10 0 59236  49902.000000  0    -597813.591  -2896913.494   6210679.699
10 0 59236  50022.000000  0   -1051276.823  -3575042.231   5783446.135
10 0 59236  50142.000000  0   -1497637.281  -4182871.385   5254505.311
10 0 59236  50262.000000  0   -1927768.271  -4709962.638   4633122.195
10 0 59236  50382.000000  0   -2332651.896  -5147440.426   3930198.713
10 0 59236  50502.000000  0   -2703569.073  -5488150.864   3158085.331
10 0 59236  50622.000000  0   -3032286.746  -5726785.907   2330363.366
10 0 59236  50742.000000  0   -3311238.661  -5859971.638   1461604.093
10 0 59236  50862.000000  0   -3533695.833  -5886319.063    567107.526
10 0 59236  50982.000000  0   -3693922.138  -5806435.025   -337374.034
10 0 59236  51102.000000  0   -3787311.055  -5622893.105  -1235922.010
10 0 59236  51222.000000  0   -3810499.692  -5340164.109  -2112741.097
10 0 59236  51342.000000  0   -3761457.230  -4964508.073  -2952444.894
10 0 59236  51462.000000  0   -3639545.362  -4503831.205  -3740331.212
10 0 59236  51582.000000  0   -3445549.590  -3967512.637  -4462640.599
10 0 59236  51702.000000  0   -3181681.934  -3366206.473  -5106793.846
10 0 59236  51822.000000  0   -2851555.466  -2711623.501  -5661604.922
10 0 59236  51942.000000  0   -2460131.925  -2016298.289  -6117465.955
10 0 59236  52062.000000  0   -2013643.521  -1293346.822  -6466503.506
10 0 59236  52182.000000  0   -1519490.150   -556218.715  -6702703.041
10 0 59236  52302.000000  0    -986115.856    181550.191  -6822000.675
10 0 59236  52422.000000  0    -422866.628    906580.378  -6822344.873
99
